{
  "type": "FeatureCollection",
  "features": [
    {
      "type": "Feature",
      "properties": {
        "norad_id": 33939,
        "name": "COSMOS 2251 DEB",
        "group": "cosmos-2251-debris",
        "lat": 33.69837540499875,
        "lon": 89.52721858658852,
        "alt_km": 561.7825883798059,
        "timestamp": "2025-12-13T18:50:04.823405+00:00",
        "meta_object_name": "COSMOS 2251 DEB",
        "meta_object_id": "1993-036EU",
        "meta_epoch": "2025-12-13T07:28:24.467520",
        "meta_mean_motion": 14.9997811,
        "meta_eccentricity": 0.00038329,
        "meta_inclination": 74.0063,
        "meta_ra_of_asc_node": 79.4634,
        "meta_arg_of_pericenter": 53.8964,
        "meta_mean_anomaly": 306.2577,
        "meta_ephemeris_type": 0,
        "meta_classification_type": "U",
        "meta_norad_cat_id": 33939,
        "meta_element_set_no": 999,
        "meta_rev_at_epoch": 88761,
        "meta_bstar": 0.005547803,
        "meta_mean_motion_dot": 0.00069638,
        "meta_mean_motion_ddot": 0,
        "tle_line1": "1 33939U 93036EU  25347.31139430  .00069638  00000+0  55478-2 0  9995",
        "tle_line2": "2 33939  74.0063  79.4634 0003832  53.8964 306.2577 14.99978110887612"
      },
      "geometry": {
        "type": "Point",
        "coordinates": [
          89.52721858658852,
          33.69837540499875
        ]
      }
    },
    {
      "type": "Feature",
      "properties": {
        "norad_id": 33940,
        "name": "COSMOS 2251 DEB",
        "group": "cosmos-2251-debris",
        "lat": 10.661759487909926,
        "lon": 144.59578105847513,
        "alt_km": 705.0713314079067,
        "timestamp": "2025-12-13T18:50:04.823415+00:00",
        "meta_object_name": "COSMOS 2251 DEB",
        "meta_object_id": "1993-036EV",
        "meta_epoch": "2025-12-13T04:47:25.188576",
        "meta_mean_motion": 14.58803662,
        "meta_eccentricity": 0.00112945,
        "meta_inclination": 74.0396,
        "meta_ra_of_asc_node": 142.6211,
        "meta_arg_of_pericenter": 222.5419,
        "meta_mean_anomaly": 316.6622,
        "meta_ephemeris_type": 0,
        "meta_classification_type": "U",
        "meta_norad_cat_id": 33940,
        "meta_element_set_no": 999,
        "meta_rev_at_epoch": 88600,
        "meta_bstar": 0.0017001532,
        "meta_mean_motion_dot": 7.936e-05,
        "meta_mean_motion_ddot": 0,
        "tle_line1": "1 33940U 93036EV  25347.19959709  .00007936  00000+0  17002-2 0  9996",
        "tle_line2": "2 33940  74.0396 142.6211 0011294 222.5419 316.6622 14.58803662886000"
      },
      "geometry": {
        "type": "Point",
        "coordinates": [
          144.59578105847513,
          10.661759487909926
        ]
      }
    },
    {
      "type": "Feature",
      "properties": {
        "norad_id": 33942,
        "name": "COSMOS 2251 DEB",
        "group": "cosmos-2251-debris",
        "lat": 47.04441715136302,
        "lon": 75.00002787364004,
        "alt_km": 770.7906433472808,
        "timestamp": "2025-12-13T18:50:04.823440+00:00",
        "meta_object_name": "COSMOS 2251 DEB",
        "meta_object_id": "1993-036EX",
        "meta_epoch": "2025-12-13T05:24:43.707168",
        "meta_mean_motion": 14.37989911,
        "meta_eccentricity": 0.00203404,
        "meta_inclination": 74.0367,
        "meta_ra_of_asc_node": 273.934,
        "meta_arg_of_pericenter": 357.0936,
        "meta_mean_anomaly": 119.0394,
        "meta_ephemeris_type": 0,
        "meta_classification_type": "U",
        "meta_norad_cat_id": 33942,
        "meta_element_set_no": 999,
        "meta_rev_at_epoch": 88141,
        "meta_bstar": 0.00036358803,
        "meta_mean_motion_dot": 1.076e-05,
        "meta_mean_motion_ddot": 0,
        "tle_line1": "1 33942U 93036EX  25347.22550587  .00001076  00000+0  36359-3 0  9999",
        "tle_line2": "2 33942  74.0367 273.9340 0020340 357.0936 119.0394 14.37989911881411"
      },
      "geometry": {
        "type": "Point",
        "coordinates": [
          75.00002787364004,
          47.04441715136302
        ]
      }
    },
    {
      "type": "Feature",
      "properties": {
        "norad_id": 33944,
        "name": "COSMOS 2251 DEB",
        "group": "cosmos-2251-debris",
        "lat": 1.1674910041254611,
        "lon": -52.66216935853979,
        "alt_km": 712.5998643798321,
        "timestamp": "2025-12-13T18:50:04.823453+00:00",
        "meta_object_name": "COSMOS 2251 DEB",
        "meta_object_id": "1993-036EZ",
        "meta_epoch": "2025-12-13T07:39:29.312928",
        "meta_mean_motion": 14.37345909,
        "meta_eccentricity": 0.01121974,
        "meta_inclination": 74.0403,
        "meta_ra_of_asc_node": 307.8601,
        "meta_arg_of_pericenter": 47.3089,
        "meta_mean_anomaly": 66.2131,
        "meta_ephemeris_type": 0,
        "meta_classification_type": "U",
        "meta_norad_cat_id": 33944,
        "meta_element_set_no": 999,
        "meta_rev_at_epoch": 88036,
        "meta_bstar": 0.0005593044,
        "meta_mean_motion_dot": 1.769e-05,
        "meta_mean_motion_ddot": 0,
        "tle_line1": "1 33944U 93036EZ  25347.31908927  .00001769  00000+0  55930-3 0  9991",
        "tle_line2": "2 33944  74.0403 307.8601 0112197  47.3089  66.2131 14.37345909880369"
      },
      "geometry": {
        "type": "Point",
        "coordinates": [
          -52.66216935853979,
          1.1674910041254611
        ]
      }
    },
    {
      "type": "Feature",
      "properties": {
        "norad_id": 33945,
        "name": "COSMOS 2251 DEB",
        "group": "cosmos-2251-debris",
        "lat": 33.39374968729094,
        "lon": 113.47078935466399,
        "alt_km": 780.4403366235128,
        "timestamp": "2025-12-13T18:50:04.823463+00:00",
        "meta_object_name": "COSMOS 2251 DEB",
        "meta_object_id": "1993-036FA",
        "meta_epoch": "2025-12-13T06:26:51.315936",
        "meta_mean_motion": 14.34601829,
        "meta_eccentricity": 0.00219183,
        "meta_inclination": 74.0298,
        "meta_ra_of_asc_node": 305.2977,
        "meta_arg_of_pericenter": 31.4906,
        "meta_mean_anomaly": 328.7553,
        "meta_ephemeris_type": 0,
        "meta_classification_type": "U",
        "meta_norad_cat_id": 33945,
        "meta_element_set_no": 999,
        "meta_rev_at_epoch": 88023,
        "meta_bstar": 0.00023020487,
        "meta_mean_motion_dot": 6.26e-06,
        "meta_mean_motion_ddot": 0,
        "tle_line1": "1 33945U 93036FA  25347.26864949  .00000626  00000+0  23020-3 0  9997",
        "tle_line2": "2 33945  74.0298 305.2977 0021918  31.4906 328.7553 14.34601829880235"
      },
      "geometry": {
        "type": "Point",
        "coordinates": [
          113.47078935466399,
          33.39374968729094
        ]
      }
    },
    {
      "type": "Feature",
      "properties": {
        "norad_id": 33948,
        "name": "COSMOS 2251 DEB",
        "group": "cosmos-2251-debris",
        "lat": -2.5374663540442883,
        "lon": -57.51003314541256,
        "alt_km": 760.7474503055355,
        "timestamp": "2025-12-13T18:50:04.823474+00:00",
        "meta_object_name": "COSMOS 2251 DEB",
        "meta_object_id": "1993-036FD",
        "meta_epoch": "2025-12-13T07:08:24.088128",
        "meta_mean_motion": 14.35630699,
        "meta_eccentricity": 0.00227382,
        "meta_inclination": 74.0356,
        "meta_ra_of_asc_node": 304.1105,
        "meta_arg_of_pericenter": 19.7912,
        "meta_mean_anomaly": 340.4117,
        "meta_ephemeris_type": 0,
        "meta_classification_type": "U",
        "meta_norad_cat_id": 33948,
        "meta_element_set_no": 999,
        "meta_rev_at_epoch": 88031,
        "meta_bstar": 0.00033011318,
        "meta_mean_motion_dot": 9.29e-06,
        "meta_mean_motion_ddot": 0,
        "tle_line1": "1 33948U 93036FD  25347.29750102  .00000929  00000+0  33011-3 0  9995",
        "tle_line2": "2 33948  74.0356 304.1105 0022738  19.7912 340.4117 14.35630699880315"
      },
      "geometry": {
        "type": "Point",
        "coordinates": [
          -57.51003314541256,
          -2.5374663540442883
        ]
      }
    },
    {
      "type": "Feature",
      "properties": {
        "norad_id": 33971,
        "name": "COSMOS 2251 DEB",
        "group": "cosmos-2251-debris",
        "lat": 71.71402973333333,
        "lon": -48.09938612494398,
        "alt_km": 751.8718242901286,
        "timestamp": "2025-12-13T18:50:04.823484+00:00",
        "meta_object_name": "COSMOS 2251 DEB",
        "meta_object_id": "1993-036FE",
        "meta_epoch": "2025-12-13T04:00:27.963648",
        "meta_mean_motion": 14.39726897,
        "meta_eccentricity": 0.00185564,
        "meta_inclination": 74.025,
        "meta_ra_of_asc_node": 252.9434,
        "meta_arg_of_pericenter": 353.3187,
        "meta_mean_anomaly": 126.7713,
        "meta_ephemeris_type": 0,
        "meta_classification_type": "U",
        "meta_norad_cat_id": 33971,
        "meta_element_set_no": 999,
        "meta_rev_at_epoch": 88145,
        "meta_bstar": 0.00043001749,
        "meta_mean_motion_dot": 1.323e-05,
        "meta_mean_motion_ddot": 0,
        "tle_line1": "1 33971U 93036FE  25347.16699032  .00001323  00000+0  43002-3 0  9991",
        "tle_line2": "2 33971  74.0250 252.9434 0018556 353.3187 126.7713 14.39726897881456"
      },
      "geometry": {
        "type": "Point",
        "coordinates": [
          -48.09938612494398,
          71.71402973333333
        ]
      }
    }
  ]
}